<?xml version='1.0' encoding='UTF-8'?>
<osm version="0.6" generator="lanelet2-clean-centerlines-for-sumo">
  <bounds minlat="36.84286444101" minlon="128.09245178793" maxlat="36.84367780936" maxlon="128.09310995052" />
  <node id="1000000" lat="36.84315863125" lon="128.09270733964" />
  <node id="1000001" lat="36.84316714573" lon="128.09270129463" />
  <node id="1000002" lat="36.84317566021" lon="128.09269524963" />
  <way id="2000000">
    <nd ref="1000000" />
    <nd ref="1000001" />
    <nd ref="1000002" />
    <tag k="highway" v="residential" />
    <tag k="name" v="lanelet_32" />
    <tag k="oneway" v="yes" />
    <tag k="maxspeed" v="10" />
  </way>
  <node id="1000003" lat="36.84350506951" lon="128.09249068410" />
  <node id="1000004" lat="36.84351332144" lon="128.09248514387" />
  <node id="1000005" lat="36.84352159730" lon="128.09247965959" />
  <node id="1000006" lat="36.84352990038" lon="128.09247423898" />
  <node id="1000007" lat="36.84353859040" lon="128.09246986693" />
  <node id="1000008" lat="36.84354739446" lon="128.09246587135" />
  <node id="1000009" lat="36.84355632402" lon="128.09246231185" />
  <way id="2000001">
    <nd ref="1000003" />
    <nd ref="1000004" />
    <nd ref="1000005" />
    <nd ref="1000006" />
    <nd ref="1000007" />
    <nd ref="1000008" />
    <nd ref="1000009" />
    <tag k="highway" v="residential" />
    <tag k="name" v="lanelet_58" />
    <tag k="oneway" v="yes" />
    <tag k="maxspeed" v="10" />
  </way>
  <node id="1000010" lat="36.84358616456" lon="128.09248265894" />
  <node id="1000011" lat="36.84358644249" lon="128.09249476787" />
  <node id="1000012" lat="36.84358494887" lon="128.09250673608" />
  <node id="1000013" lat="36.84358326905" lon="128.09251868714" />
  <node id="1000014" lat="36.84358255074" lon="128.09253079371" />
  <way id="2000002">
    <nd ref="1000010" />
    <nd ref="1000011" />
    <nd ref="1000012" />
    <nd ref="1000013" />
    <nd ref="1000014" />
    <tag k="highway" v="residential" />
    <tag k="name" v="lanelet_67" />
    <tag k="oneway" v="yes" />
    <tag k="maxspeed" v="10" />
  </way>
  <node id="1000015" lat="36.84348920393" lon="128.09280618153" />
  <node id="1000016" lat="36.84347864969" lon="128.09280524330" />
  <node id="1000017" lat="36.84346809495" lon="128.09280431118" />
  <node id="1000018" lat="36.84345754347" lon="128.09280333656" />
  <node id="1000019" lat="36.84344697457" lon="128.09280270958" />
  <node id="1000020" lat="36.84343639392" lon="128.09280265521" />
  <way id="2000003">
    <nd ref="1000015" />
    <nd ref="1000016" />
    <nd ref="1000017" />
    <nd ref="1000018" />
    <nd ref="1000019" />
    <nd ref="1000020" />
    <tag k="highway" v="residential" />
    <tag k="name" v="lanelet_132" />
    <tag k="oneway" v="yes" />
    <tag k="maxspeed" v="10" />
  </way>
  <node id="1000021" lat="36.84359115645" lon="128.09261340214" />
  <node id="1000022" lat="36.84359232937" lon="128.09262647246" />
  <node id="1000023" lat="36.84359338025" lon="128.09263955884" />
  <node id="1000024" lat="36.84359408552" lon="128.09265268101" />
  <node id="1000025" lat="36.84359469474" lon="128.09266581068" />
  <way id="2000004">
    <nd ref="1000021" />
    <nd ref="1000022" />
    <nd ref="1000023" />
    <nd ref="1000024" />
    <nd ref="1000025" />
    <tag k="highway" v="residential" />
    <tag k="name" v="lanelet_163" />
    <tag k="oneway" v="yes" />
    <tag k="maxspeed" v="10" />
  </way>
  <node id="1000026" lat="36.84353663008" lon="128.09281082006" />
  <node id="1000027" lat="36.84352721335" lon="128.09280970712" />
  <node id="1000028" lat="36.84351779684" lon="128.09280859384" />
  <node id="1000029" lat="36.84350837392" lon="128.09280757249" />
  <node id="1000030" lat="36.84349893732" lon="128.09280677100" />
  <node id="1000031" lat="36.84348948964" lon="128.09280620193" />
  <way id="2000005">
    <nd ref="1000026" />
    <nd ref="1000027" />
    <nd ref="1000028" />
    <nd ref="1000029" />
    <nd ref="1000030" />
    <nd ref="1000031" />
    <tag k="highway" v="residential" />
    <tag k="name" v="lanelet_326" />
    <tag k="oneway" v="yes" />
    <tag k="maxspeed" v="10" />
  </way>
  <node id="1000032" lat="36.84306468959" lon="128.09299745003" />
  <node id="1000033" lat="36.84305660205" lon="128.09300770450" />
  <node id="1000034" lat="36.84304806293" lon="128.09301737583" />
  <node id="1000035" lat="36.84303963309" lon="128.09302720381" />
  <way id="2000006">
    <nd ref="1000032" />
    <nd ref="1000033" />
    <nd ref="1000034" />
    <nd ref="1000035" />
    <tag k="highway" v="residential" />
    <tag k="name" v="lanelet_575" />
    <tag k="oneway" v="yes" />
    <tag k="maxspeed" v="10" />
  </way>
  <node id="1000036" lat="36.84298758295" lon="128.09289361226" />
  <node id="1000037" lat="36.84299118339" lon="128.09288153290" />
  <node id="1000038" lat="36.84299255119" lon="128.09286881414" />
  <node id="1000039" lat="36.84299239110" lon="128.09285594531" />
  <node id="1000040" lat="36.84299621763" lon="128.09284435348" />
  <way id="2000007">
    <nd ref="1000036" />
    <nd ref="1000037" />
    <nd ref="1000038" />
    <nd ref="1000039" />
    <nd ref="1000040" />
    <tag k="highway" v="residential" />
    <tag k="name" v="lanelet_659" />
    <tag k="oneway" v="yes" />
    <tag k="maxspeed" v="10" />
  </way>
  <node id="1000041" lat="36.84299854582" lon="128.09284122817" />
  <node id="1000042" lat="36.84300745497" lon="128.09283283553" />
  <node id="1000043" lat="36.84301665379" lon="128.09282494530" />
  <node id="1000044" lat="36.84302610645" lon="128.09281753344" />
  <way id="2000008">
    <nd ref="1000041" />
    <nd ref="1000042" />
    <nd ref="1000043" />
    <nd ref="1000044" />
    <tag k="highway" v="residential" />
    <tag k="name" v="lanelet_686" />
    <tag k="oneway" v="yes" />
    <tag k="maxspeed" v="10" />
  </way>
  <node id="1000045" lat="36.84347650249" lon="128.09251050789" />
  <node id="1000046" lat="36.84348583940" lon="128.09250402884" />
  <node id="1000047" lat="36.84349517631" lon="128.09249754978" />
  <node id="1000048" lat="36.84350451322" lon="128.09249107073" />
  <way id="2000009">
    <nd ref="1000045" />
    <nd ref="1000046" />
    <nd ref="1000047" />
    <nd ref="1000048" />
    <tag k="highway" v="residential" />
    <tag k="name" v="lanelet_713" />
    <tag k="oneway" v="yes" />
    <tag k="maxspeed" v="10" />
  </way>
  <node id="1000049" lat="36.84358249786" lon="128.09253186149" />
  <node id="1000050" lat="36.84358391355" lon="128.09254344448" />
  <node id="1000051" lat="36.84358532796" lon="128.09255502771" />
  <node id="1000052" lat="36.84358672391" lon="128.09256661440" />
  <node id="1000053" lat="36.84358805975" lon="128.09257821180" />
  <node id="1000054" lat="36.84358923952" lon="128.09258983542" />
  <node id="1000055" lat="36.84359025355" lon="128.09260148320" />
  <node id="1000056" lat="36.84359113745" lon="128.09261314753" />
  <way id="2000010">
    <nd ref="1000049" />
    <nd ref="1000050" />
    <nd ref="1000051" />
    <nd ref="1000052" />
    <nd ref="1000053" />
    <nd ref="1000054" />
    <nd ref="1000055" />
    <nd ref="1000056" />
    <tag k="highway" v="residential" />
    <tag k="name" v="lanelet_751" />
    <tag k="oneway" v="yes" />
    <tag k="maxspeed" v="10" />
  </way>
  <node id="1000057" lat="36.84359470549" lon="128.09266603904" />
  <node id="1000058" lat="36.84359472812" lon="128.09267740672" />
  <node id="1000059" lat="36.84359475780" lon="128.09268877443" />
  <node id="1000060" lat="36.84359479192" lon="128.09270014217" />
  <node id="1000061" lat="36.84359482309" lon="128.09271150992" />
  <node id="1000062" lat="36.84359484612" lon="128.09272287770" />
  <node id="1000063" lat="36.84359514949" lon="128.09273422818" />
  <node id="1000064" lat="36.84359603663" lon="128.09274554273" />
  <node id="1000065" lat="36.84359692376" lon="128.09275685729" />
  <node id="1000066" lat="36.84359781090" lon="128.09276817184" />
  <way id="2000011">
    <nd ref="1000057" />
    <nd ref="1000058" />
    <nd ref="1000059" />
    <nd ref="1000060" />
    <nd ref="1000061" />
    <nd ref="1000062" />
    <nd ref="1000063" />
    <nd ref="1000064" />
    <nd ref="1000065" />
    <nd ref="1000066" />
    <tag k="highway" v="residential" />
    <tag k="name" v="lanelet_754" />
    <tag k="oneway" v="yes" />
    <tag k="maxspeed" v="10" />
  </way>
  <node id="1000067" lat="36.84355743209" lon="128.09246186667" />
  <node id="1000068" lat="36.84356672994" lon="128.09245979749" />
  <node id="1000069" lat="36.84357538411" lon="128.09246353422" />
  <node id="1000070" lat="36.84358112968" lon="128.09247170428" />
  <way id="2000012">
    <nd ref="1000067" />
    <nd ref="1000068" />
    <nd ref="1000069" />
    <nd ref="1000070" />
    <tag k="highway" v="residential" />
    <tag k="name" v="lanelet_782" />
    <tag k="oneway" v="yes" />
    <tag k="maxspeed" v="10" />
  </way>
  <node id="1000071" lat="36.84332432048" lon="128.09261059292" />
  <node id="1000072" lat="36.84333255880" lon="128.09260600664" />
  <node id="1000073" lat="36.84334079713" lon="128.09260142037" />
  <node id="1000074" lat="36.84334903296" lon="128.09259682717" />
  <node id="1000075" lat="36.84335726717" lon="128.09259222947" />
  <node id="1000076" lat="36.84336549921" lon="128.09258762577" />
  <node id="1000077" lat="36.84337372353" lon="128.09258300075" />
  <node id="1000078" lat="36.84338194786" lon="128.09257837574" />
  <node id="1000079" lat="36.84339015072" lon="128.09257369218" />
  <node id="1000080" lat="36.84339834909" lon="128.09256899638" />
  <node id="1000081" lat="36.84340650197" lon="128.09256418182" />
  <node id="1000082" lat="36.84341459604" lon="128.09255921383" />
  <node id="1000083" lat="36.84342267443" lon="128.09255420960" />
  <node id="1000084" lat="36.84343045978" lon="128.09254852907" />
  <node id="1000085" lat="36.84343824423" lon="128.09254284650" />
  <node id="1000086" lat="36.84344578811" lon="128.09253669514" />
  <node id="1000087" lat="36.84345320640" lon="128.09253029912" />
  <node id="1000088" lat="36.84346063629" lon="128.09252392413" />
  <node id="1000089" lat="36.84346810070" lon="128.09251761171" />
  <node id="1000090" lat="36.84347556510" lon="128.09251129929" />
  <way id="2000013">
    <nd ref="1000071" />
    <nd ref="1000072" />
    <nd ref="1000073" />
    <nd ref="1000074" />
    <nd ref="1000075" />
    <nd ref="1000076" />
    <nd ref="1000077" />
    <nd ref="1000078" />
    <nd ref="1000079" />
    <nd ref="1000080" />
    <nd ref="1000081" />
    <nd ref="1000082" />
    <nd ref="1000083" />
    <nd ref="1000084" />
    <nd ref="1000085" />
    <nd ref="1000086" />
    <nd ref="1000087" />
    <nd ref="1000088" />
    <nd ref="1000089" />
    <nd ref="1000090" />
    <tag k="highway" v="residential" />
    <tag k="name" v="lanelet_806" />
    <tag k="oneway" v="yes" />
    <tag k="maxspeed" v="10" />
  </way>
  <node id="1000091" lat="36.84305346776" lon="128.09280904471" />
  <node id="1000092" lat="36.84306123240" lon="128.09280328163" />
  <node id="1000093" lat="36.84306899703" lon="128.09279751855" />
  <node id="1000094" lat="36.84307676166" lon="128.09279175547" />
  <node id="1000095" lat="36.84308454976" lon="128.09278604176" />
  <node id="1000096" lat="36.84309234984" lon="128.09278035325" />
  <node id="1000097" lat="36.84310014992" lon="128.09277466474" />
  <node id="1000098" lat="36.84310797724" lon="128.09276903532" />
  <node id="1000099" lat="36.84311586193" lon="128.09276353035" />
  <node id="1000100" lat="36.84312374662" lon="128.09275802537" />
  <node id="1000101" lat="36.84313163130" lon="128.09275252039" />
  <way id="2000014">
    <nd ref="1000091" />
    <nd ref="1000092" />
    <nd ref="1000093" />
    <nd ref="1000094" />
    <nd ref="1000095" />
    <nd ref="1000096" />
    <nd ref="1000097" />
    <nd ref="1000098" />
    <nd ref="1000099" />
    <nd ref="1000100" />
    <nd ref="1000101" />
    <tag k="highway" v="residential" />
    <tag k="name" v="lanelet_855" />
    <tag k="oneway" v="yes" />
    <tag k="maxspeed" v="10" />
  </way>
  <node id="1000102" lat="36.84302789358" lon="128.09281626995" />
  <node id="1000103" lat="36.84303985623" lon="128.09281194389" />
  <node id="1000104" lat="36.84305218064" lon="128.09280967940" />
  <way id="2000015">
    <nd ref="1000102" />
    <nd ref="1000103" />
    <nd ref="1000104" />
    <tag k="highway" v="residential" />
    <tag k="name" v="lanelet_888" />
    <tag k="oneway" v="yes" />
    <tag k="maxspeed" v="10" />
  </way>
  <node id="1000105" lat="36.84313176612" lon="128.09275242614" />
  <node id="1000106" lat="36.84313949974" lon="128.09274583085" />
  <node id="1000107" lat="36.84314531305" lon="128.09273700520" />
  <node id="1000108" lat="36.84314846699" lon="128.09272613028" />
  <node id="1000109" lat="36.84315215175" lon="128.09271560025" />
  <node id="1000110" lat="36.84315862937" lon="128.09270734164" />
  <way id="2000016">
    <nd ref="1000105" />
    <nd ref="1000106" />
    <nd ref="1000107" />
    <nd ref="1000108" />
    <nd ref="1000109" />
    <nd ref="1000110" />
    <tag k="highway" v="residential" />
    <tag k="name" v="lanelet_903" />
    <tag k="oneway" v="yes" />
    <tag k="maxspeed" v="10" />
  </way>
  <node id="1000111" lat="36.84317566132" lon="128.09269524884" />
  <node id="1000112" lat="36.84318441066" lon="128.09268899559" />
  <node id="1000113" lat="36.84319418936" lon="128.09268740563" />
  <node id="1000114" lat="36.84320403010" lon="128.09268708311" />
  <node id="1000115" lat="36.84321264929" lon="128.09268073847" />
  <node id="1000116" lat="36.84322091282" lon="128.09267353396" />
  <way id="2000017">
    <nd ref="1000111" />
    <nd ref="1000112" />
    <nd ref="1000113" />
    <nd ref="1000114" />
    <nd ref="1000115" />
    <nd ref="1000116" />
    <tag k="highway" v="residential" />
    <tag k="name" v="lanelet_921" />
    <tag k="oneway" v="yes" />
    <tag k="maxspeed" v="10" />
  </way>
  <node id="1000117" lat="36.84322113854" lon="128.09267333567" />
  <node id="1000118" lat="36.84322907760" lon="128.09266684082" />
  <node id="1000119" lat="36.84323713285" lon="128.09266057762" />
  <node id="1000120" lat="36.84324531074" lon="128.09265455898" />
  <node id="1000121" lat="36.84325386409" lon="128.09264941394" />
  <node id="1000122" lat="36.84326247189" lon="128.09264441064" />
  <node id="1000123" lat="36.84327113218" lon="128.09263954748" />
  <node id="1000124" lat="36.84327982212" lon="128.09263476692" />
  <node id="1000125" lat="36.84328852594" lon="128.09263002579" />
  <node id="1000126" lat="36.84329724593" lon="128.09262533064" />
  <node id="1000127" lat="36.84330595746" lon="128.09262061127" />
  <node id="1000128" lat="36.84331466271" lon="128.09261587404" />
  <node id="1000129" lat="36.84332336079" lon="128.09261111642" />
  <way id="2000018">
    <nd ref="1000117" />
    <nd ref="1000118" />
    <nd ref="1000119" />
    <nd ref="1000120" />
    <nd ref="1000121" />
    <nd ref="1000122" />
    <nd ref="1000123" />
    <nd ref="1000124" />
    <nd ref="1000125" />
    <nd ref="1000126" />
    <nd ref="1000127" />
    <nd ref="1000128" />
    <nd ref="1000129" />
    <tag k="highway" v="residential" />
    <tag k="name" v="lanelet_953" />
    <tag k="oneway" v="yes" />
    <tag k="maxspeed" v="10" />
  </way>
  <node id="1000130" lat="36.84295246225" lon="128.09303019325" />
  <node id="1000131" lat="36.84294421746" lon="128.09303705879" />
  <node id="1000132" lat="36.84293596780" lon="128.09304391539" />
  <node id="1000133" lat="36.84292771460" lon="128.09305076493" />
  <node id="1000134" lat="36.84291945413" lon="128.09305760138" />
  <node id="1000135" lat="36.84291120819" lon="128.09306446478" />
  <node id="1000136" lat="36.84290295804" lon="128.09307132072" />
  <node id="1000137" lat="36.84289469828" lon="128.09307815860" />
  <node id="1000138" lat="36.84288645471" lon="128.09308502662" />
  <node id="1000139" lat="36.84287820192" lon="128.09309187754" />
  <way id="2000019">
    <nd ref="1000130" />
    <nd ref="1000131" />
    <nd ref="1000132" />
    <nd ref="1000133" />
    <nd ref="1000134" />
    <nd ref="1000135" />
    <nd ref="1000136" />
    <nd ref="1000137" />
    <nd ref="1000138" />
    <nd ref="1000139" />
    <tag k="highway" v="footway" />
    <tag k="name" v="lanelet_1413" />
    <tag k="maxspeed" v="10" />
  </way>
  <node id="1000140" lat="36.84359782668" lon="128.09276837145" />
  <node id="1000141" lat="36.84359847603" lon="128.09278036996" />
  <node id="1000142" lat="36.84359719195" lon="128.09279219809" />
  <node id="1000143" lat="36.84359235535" lon="128.09280215928" />
  <node id="1000144" lat="36.84358484629" lon="128.09280888325" />
  <node id="1000145" lat="36.84357600864" lon="128.09281212566" />
  <node id="1000146" lat="36.84356663738" lon="128.09281351393" />
  <node id="1000147" lat="36.84355701038" lon="128.09281310782" />
  <node id="1000148" lat="36.84354736638" lon="128.09281231668" />
  <way id="2000020">
    <nd ref="1000140" />
    <nd ref="1000141" />
    <nd ref="1000142" />
    <nd ref="1000143" />
    <nd ref="1000144" />
    <nd ref="1000145" />
    <nd ref="1000146" />
    <nd ref="1000147" />
    <nd ref="1000148" />
    <tag k="highway" v="residential" />
    <tag k="name" v="lanelet_2093" />
    <tag k="oneway" v="yes" />
    <tag k="maxspeed" v="10" />
  </way>
  <node id="1000149" lat="36.84343587631" lon="128.09280264887" />
  <node id="1000150" lat="36.84342613284" lon="128.09280243655" />
  <node id="1000151" lat="36.84341640936" lon="128.09280314385" />
  <node id="1000152" lat="36.84340676794" lon="128.09280488644" />
  <node id="1000153" lat="36.84339720478" lon="128.09280722784" />
  <node id="1000154" lat="36.84338776161" lon="128.09281022056" />
  <node id="1000155" lat="36.84337844523" lon="128.09281378307" />
  <node id="1000156" lat="36.84336925648" lon="128.09281782860" />
  <node id="1000157" lat="36.84336013996" lon="128.09282212021" />
  <node id="1000158" lat="36.84335106270" lon="128.09282653950" />
  <node id="1000159" lat="36.84334197387" lon="128.09283092174" />
  <node id="1000160" lat="36.84333286643" lon="128.09283524389" />
  <way id="2000021">
    <nd ref="1000149" />
    <nd ref="1000150" />
    <nd ref="1000151" />
    <nd ref="1000152" />
    <nd ref="1000153" />
    <nd ref="1000154" />
    <nd ref="1000155" />
    <nd ref="1000156" />
    <nd ref="1000157" />
    <nd ref="1000158" />
    <nd ref="1000159" />
    <nd ref="1000160" />
    <tag k="highway" v="residential" />
    <tag k="name" v="lanelet_2136" />
    <tag k="oneway" v="yes" />
    <tag k="maxspeed" v="10" />
  </way>
  <node id="1000161" lat="36.84333265424" lon="128.09283534266" />
  <node id="1000162" lat="36.84332375505" lon="128.09283949333" />
  <node id="1000163" lat="36.84331486764" lon="128.09284368519" />
  <node id="1000164" lat="36.84330599181" lon="128.09284791709" />
  <node id="1000165" lat="36.84329712997" lon="128.09285219618" />
  <node id="1000166" lat="36.84328826868" lon="128.09285647697" />
  <way id="2000022">
    <nd ref="1000161" />
    <nd ref="1000162" />
    <nd ref="1000163" />
    <nd ref="1000164" />
    <nd ref="1000165" />
    <nd ref="1000166" />
    <tag k="highway" v="residential" />
    <tag k="name" v="lanelet_2154" />
    <tag k="oneway" v="yes" />
    <tag k="maxspeed" v="10" />
  </way>
  <node id="1000167" lat="36.84328672084" lon="128.09285723108" />
  <node id="1000168" lat="36.84327776366" lon="128.09286202574" />
  <node id="1000169" lat="36.84326883374" lon="128.09286690020" />
  <node id="1000170" lat="36.84325993777" lon="128.09287187177" />
  <node id="1000171" lat="36.84325112516" lon="128.09287706877" />
  <node id="1000172" lat="36.84324228303" lon="128.09288218110" />
  <node id="1000173" lat="36.84323338154" lon="128.09288713274" />
  <node id="1000174" lat="36.84322445599" lon="128.09289202131" />
  <node id="1000175" lat="36.84321549910" lon="128.09289681271" />
  <node id="1000176" lat="36.84320658468" lon="128.09290172910" />
  <node id="1000177" lat="36.84319765540" lon="128.09290660841" />
  <node id="1000178" lat="36.84318871417" lon="128.09291145226" />
  <way id="2000023">
    <nd ref="1000167" />
    <nd ref="1000168" />
    <nd ref="1000169" />
    <nd ref="1000170" />
    <nd ref="1000171" />
    <nd ref="1000172" />
    <nd ref="1000173" />
    <nd ref="1000174" />
    <nd ref="1000175" />
    <nd ref="1000176" />
    <nd ref="1000177" />
    <nd ref="1000178" />
    <tag k="highway" v="residential" />
    <tag k="name" v="lanelet_2192" />
    <tag k="oneway" v="yes" />
    <tag k="maxspeed" v="10" />
  </way>
  <node id="1000179" lat="36.84318550490" lon="128.09291312668" />
  <node id="1000180" lat="36.84317676337" lon="128.09291746476" />
  <node id="1000181" lat="36.84316803565" lon="128.09292184482" />
  <node id="1000182" lat="36.84315936461" lon="128.09292639659" />
  <node id="1000183" lat="36.84315073796" lon="128.09293107451" />
  <node id="1000184" lat="36.84314217136" lon="128.09293592295" />
  <node id="1000185" lat="36.84313356224" lon="128.09294065041" />
  <node id="1000186" lat="36.84312494344" lon="128.09294534991" />
  <way id="2000024">
    <nd ref="1000179" />
    <nd ref="1000180" />
    <nd ref="1000181" />
    <nd ref="1000182" />
    <nd ref="1000183" />
    <nd ref="1000184" />
    <nd ref="1000185" />
    <nd ref="1000186" />
    <tag k="highway" v="residential" />
    <tag k="name" v="lanelet_2193" />
    <tag k="oneway" v="yes" />
    <tag k="maxspeed" v="10" />
  </way>
  <node id="1000187" lat="36.84312307777" lon="128.09294641149" />
  <node id="1000188" lat="36.84311430005" lon="128.09295244966" />
  <node id="1000189" lat="36.84310560520" lon="128.09295866710" />
  <node id="1000190" lat="36.84309712676" lon="128.09296532539" />
  <node id="1000191" lat="36.84308897636" lon="128.09297258076" />
  <node id="1000192" lat="36.84308098468" lon="128.09298012116" />
  <node id="1000193" lat="36.84307308814" lon="128.09298781317" />
  <node id="1000194" lat="36.84306557375" lon="128.09299607466" />
  <way id="2000025">
    <nd ref="1000187" />
    <nd ref="1000188" />
    <nd ref="1000189" />
    <nd ref="1000190" />
    <nd ref="1000191" />
    <nd ref="1000192" />
    <nd ref="1000193" />
    <nd ref="1000194" />
    <tag k="highway" v="residential" />
    <tag k="name" v="lanelet_2219" />
    <tag k="oneway" v="yes" />
    <tag k="maxspeed" v="10" />
  </way>
  <node id="1000195" lat="36.84303882954" lon="128.09302815078" />
  <node id="1000196" lat="36.84303138005" lon="128.09303582204" />
  <node id="1000197" lat="36.84302402191" lon="128.09304362041" />
  <node id="1000198" lat="36.84301693194" lon="128.09305179613" />
  <node id="1000199" lat="36.84300999938" lon="128.09306017928" />
  <node id="1000200" lat="36.84300281697" lon="128.09306821399" />
  <way id="2000026">
    <nd ref="1000195" />
    <nd ref="1000196" />
    <nd ref="1000197" />
    <nd ref="1000198" />
    <nd ref="1000199" />
    <nd ref="1000200" />
    <tag k="highway" v="residential" />
    <tag k="name" v="lanelet_2285" />
    <tag k="oneway" v="yes" />
    <tag k="maxspeed" v="10" />
  </way>
  <node id="1000201" lat="36.84294809620" lon="128.09297421440" />
  <node id="1000202" lat="36.84295005948" lon="128.09296258491" />
  <node id="1000203" lat="36.84295303616" lon="128.09295126942" />
  <node id="1000204" lat="36.84295788350" lon="128.09294105996" />
  <node id="1000205" lat="36.84296370487" lon="128.09293162139" />
  <node id="1000206" lat="36.84297003184" lon="128.09292268970" />
  <node id="1000207" lat="36.84297614989" lon="128.09291353415" />
  <node id="1000208" lat="36.84298207293" lon="128.09290418308" />
  <node id="1000209" lat="36.84298727004" lon="128.09289419220" />
  <way id="2000027">
    <nd ref="1000201" />
    <nd ref="1000202" />
    <nd ref="1000203" />
    <nd ref="1000204" />
    <nd ref="1000205" />
    <nd ref="1000206" />
    <nd ref="1000207" />
    <nd ref="1000208" />
    <nd ref="1000209" />
    <tag k="highway" v="residential" />
    <tag k="name" v="lanelet_2287" />
    <tag k="oneway" v="yes" />
    <tag k="maxspeed" v="10" />
  </way>
  <node id="1000210" lat="36.84295731665" lon="128.09302963024" />
  <node id="1000211" lat="36.84295405295" lon="128.09301771060" />
  <node id="1000212" lat="36.84295108704" lon="128.09300567260" />
  <node id="1000213" lat="36.84294883120" lon="128.09299341331" />
  <node id="1000214" lat="36.84294802542" lon="128.09298095049" />
  <way id="2000028">
    <nd ref="1000210" />
    <nd ref="1000211" />
    <nd ref="1000212" />
    <nd ref="1000213" />
    <nd ref="1000214" />
    <tag k="highway" v="residential" />
    <tag k="name" v="lanelet_2292" />
    <tag k="oneway" v="yes" />
    <tag k="maxspeed" v="10" />
  </way>
  <node id="1000215" lat="36.84300225867" lon="128.09306886225" />
  <node id="1000216" lat="36.84299232932" lon="128.09307077780" />
  <node id="1000217" lat="36.84298273537" lon="128.09306664703" />
  <node id="1000218" lat="36.84297456984" lon="128.09305885256" />
  <node id="1000219" lat="36.84296768670" lon="128.09304929051" />
  <node id="1000220" lat="36.84296163615" lon="128.09303887019" />
  <way id="2000029">
    <nd ref="1000215" />
    <nd ref="1000216" />
    <nd ref="1000217" />
    <nd ref="1000218" />
    <nd ref="1000219" />
    <nd ref="1000220" />
    <tag k="highway" v="residential" />
    <tag k="name" v="lanelet_2305" />
    <tag k="oneway" v="yes" />
    <tag k="maxspeed" v="10" />
  </way>
</osm>